STARLINK-3938           
1 52566U 22051AK  26068.47226673 -.00000844  00000+0 -34923-4 0  9995
2 52566  53.2168 135.0964 0001315  95.8337 264.2805 15.08838338211349
DISKSAT D               
1 67221U 25305C   26068.55257179  .00011599  00000+0  76841-3 0  9999
2 67221  45.0023 251.6339 0003712 319.2749  40.7848 15.07416577 12277
